0 ARIANE 44L R/B
1 26696U 01005C   13283.06457916  .00006646  00000-0  33014-2 0  7667
2 26696 006.8208 117.3258 7124276 121.6796 011.9677 02.46021339109341
0 ARIANE 44L R/B
1 26696U 01005C   13286.70183920  .00007911  00000-0  38722-2 0  7670
2 26696 006.8323 115.5932 7124536 125.0056 353.6857 02.46058747109433
0 ARIANE 44L R/B
1 26696U 01005C   13288.35332799  .00008287  00000-0  40507-2 0  7685
2 26696 006.8371 114.8006 7124783 126.5269 016.6677 02.46086186109474
0 ARIANE 44L R/B
1 26696U 01005C   13290.14446258  .00007578  00000-0  37237-2 0  7690
2 26696 006.8437 113.9532 7124923 128.1575 163.5308 02.46114737109517
0 ARIANE 44L R/B
1 26696U 01005C   13292.41666100  .00007465  00000-0  36119-2 0  7707
2 26696 006.8520 112.8666 7125224 130.2474 016.8342 02.46150015109576
0 ARIANE 44L R/B
1 26696U 01005C   13294.03297896  .00007275  00000-0  34577-2 0  7715
2 26696 006.8576 112.1022 7125291 131.7268 009.1510 02.46179643109612
0 ARIANE 44L R/B
1 26696U 01005C   13295.72680373  .00008136  00000-0  37844-2 0  7726
2 26696 006.8637 111.3008 7125200 133.2687 070.3500 02.46205996109651
